CORAL                   
1 67685U 98067YB  26043.46599233  .00045832  00000+0  80641-3 0  9991
2 67685  51.6302 196.9730 0012714 100.4250 259.8173 15.49916259   874
ISS OBJECT YC           
1 67686U 98067YC  26043.46560099  .00053641  00000+0  93890-3 0  9997
2 67686  51.6304 196.9720 0007826  75.5097 284.6760 15.50049549   874
LEOPARD                 
1 67687U 98067YD  26043.46619948  .00043828  00000+0  77458-3 0  9994
2 67687  51.6306 196.9748 0007881  77.6214 282.5656 15.49864158   793
ISS OBJECT YE           
1 67688U 98067YE  26043.46572214  .00048919  00000+0  85915-3 0  9992
2 67688  51.6308 196.9720 0007768  76.3911 283.7943 15.49994492   797
PRC TEST SPACECRAFT 4   
1 67689U 26024A   26043.50599789 -.00000064  00000+0  17719-4 0  9996
2 67689  49.9854 140.9895 0006187 263.8442  96.1795 14.91670043   826
CZ-2F R/B               
1 67690U 26024B   26042.70847628  .00009923  00000+0  19173-3 0  9994
2 67690  49.9870 144.7968 0177377 167.1371 193.4201 15.33172352   703
CZ-2F DEB               
1 67691U 26024C   26043.46620509  .00686096  10249-4  98449-3 0  9992
2 67691  49.9105 139.9829 0268347 176.5620 183.7277 15.62512416   825
CZ-2F DEB               
1 67692U 26024D   26040.51445789  .01037071  10166-4  16463-3 0  9999
2 67692  50.3761 155.8636 0347659 202.7642 155.7595 15.62132248   365
CZ-2F DEB               
1 67718U 26024E   26043.49601598  .00287938  00000+0  59499-2 0  9994
2 67718  50.3159 141.5391 0269411 181.0578 178.9841 15.14231341   802
CZ-2F DEB               
1 67719U 26024F   26043.49500825  .00211181  00000+0  55127-2 0  9997
2 67719  49.7905 142.4366 0340779 170.5839 190.1710 14.95425538   460
CZ-2F DEB               
1 67720U 26024G   26043.50452753  .00214497  00000+0  57360-2 0  9991
2 67720  49.8301 142.4766 0351600 167.3687 193.6351 14.92769481   786
