CCSDS_OMM_VERS = 2.0
CREATION_DATE  = 
ORIGINATOR     = 

OBJECT_NAME    = CORAL
OBJECT_ID      = 1998-067YB
CENTER_NAME    = EARTH
REF_FRAME      = TEME
TIME_SYSTEM    = UTC
MEAN_ELEMENT_THEORY = SGP/SGP4

EPOCH          = 2026-02-12T11:11:01.737312
MEAN_MOTION    = 15.49916259
ECCENTRICITY   = .0012714
INCLINATION    = 51.6302
RA_OF_ASC_NODE = 196.9730
ARG_OF_PERICENTER = 100.4250
MEAN_ANOMALY   = 259.8173

EPHEMERIS_TYPE = 0
CLASSIFICATION_TYPE = U
NORAD_CAT_ID   = 67685
ELEMENT_SET_NO = 999
REV_AT_EPOCH   = 87
BSTAR          = .80641E-3
MEAN_MOTION_DOT = .45832E-3
MEAN_MOTION_DDOT = 0

CCSDS_OMM_VERS = 2.0
CREATION_DATE  = 
ORIGINATOR     = 

OBJECT_NAME    = ISS OBJECT YC
OBJECT_ID      = 1998-067YC
CENTER_NAME    = EARTH
REF_FRAME      = TEME
TIME_SYSTEM    = UTC
MEAN_ELEMENT_THEORY = SGP/SGP4

EPOCH          = 2026-02-12T11:10:27.925536
MEAN_MOTION    = 15.50049549
ECCENTRICITY   = .0007826
INCLINATION    = 51.6304
RA_OF_ASC_NODE = 196.9720
ARG_OF_PERICENTER = 75.5097
MEAN_ANOMALY   = 284.6760

EPHEMERIS_TYPE = 0
CLASSIFICATION_TYPE = U
NORAD_CAT_ID   = 67686
ELEMENT_SET_NO = 999
REV_AT_EPOCH   = 87
BSTAR          = .9389E-3
MEAN_MOTION_DOT = .53641E-3
MEAN_MOTION_DDOT = 0

CCSDS_OMM_VERS = 2.0
CREATION_DATE  = 
ORIGINATOR     = 

OBJECT_NAME    = LEOPARD
OBJECT_ID      = 1998-067YD
CENTER_NAME    = EARTH
REF_FRAME      = TEME
TIME_SYSTEM    = UTC
MEAN_ELEMENT_THEORY = SGP/SGP4

EPOCH          = 2026-02-12T11:11:19.635072
MEAN_MOTION    = 15.49864158
ECCENTRICITY   = .0007881
INCLINATION    = 51.6306
RA_OF_ASC_NODE = 196.9748
ARG_OF_PERICENTER = 77.6214
MEAN_ANOMALY   = 282.5656

EPHEMERIS_TYPE = 0
CLASSIFICATION_TYPE = U
NORAD_CAT_ID   = 67687
ELEMENT_SET_NO = 999
REV_AT_EPOCH   = 79
BSTAR          = .77458E-3
MEAN_MOTION_DOT = .43828E-3
MEAN_MOTION_DDOT = 0

CCSDS_OMM_VERS = 2.0
CREATION_DATE  = 
ORIGINATOR     = 

OBJECT_NAME    = ISS OBJECT YE
OBJECT_ID      = 1998-067YE
CENTER_NAME    = EARTH
REF_FRAME      = TEME
TIME_SYSTEM    = UTC
MEAN_ELEMENT_THEORY = SGP/SGP4

EPOCH          = 2026-02-12T11:10:38.392896
MEAN_MOTION    = 15.49994492
ECCENTRICITY   = .0007768
INCLINATION    = 51.6308
RA_OF_ASC_NODE = 196.9720
ARG_OF_PERICENTER = 76.3911
MEAN_ANOMALY   = 283.7943

EPHEMERIS_TYPE = 0
CLASSIFICATION_TYPE = U
NORAD_CAT_ID   = 67688
ELEMENT_SET_NO = 999
REV_AT_EPOCH   = 79
BSTAR          = .85915E-3
MEAN_MOTION_DOT = .48919E-3
MEAN_MOTION_DDOT = 0

CCSDS_OMM_VERS = 2.0
CREATION_DATE  = 
ORIGINATOR     = 

OBJECT_NAME    = PRC TEST SPACECRAFT 4
OBJECT_ID      = 2026-024A
CENTER_NAME    = EARTH
REF_FRAME      = TEME
TIME_SYSTEM    = UTC
MEAN_ELEMENT_THEORY = SGP/SGP4

EPOCH          = 2026-02-12T12:08:38.217696
MEAN_MOTION    = 14.91670043
ECCENTRICITY   = .0006187
INCLINATION    = 49.9854
RA_OF_ASC_NODE = 140.9895
ARG_OF_PERICENTER = 263.8442
MEAN_ANOMALY   = 96.1795

EPHEMERIS_TYPE = 0
CLASSIFICATION_TYPE = U
NORAD_CAT_ID   = 67689
ELEMENT_SET_NO = 999
REV_AT_EPOCH   = 82
BSTAR          = .17719E-4
MEAN_MOTION_DOT = -.64E-6
MEAN_MOTION_DDOT = 0

CCSDS_OMM_VERS = 2.0
CREATION_DATE  = 
ORIGINATOR     = 

OBJECT_NAME    = CZ-2F R/B
OBJECT_ID      = 2026-024B
CENTER_NAME    = EARTH
REF_FRAME      = TEME
TIME_SYSTEM    = UTC
MEAN_ELEMENT_THEORY = SGP/SGP4

EPOCH          = 2026-02-11T17:00:12.350592
MEAN_MOTION    = 15.33172352
ECCENTRICITY   = .01773779
INCLINATION    = 49.9870
RA_OF_ASC_NODE = 144.7968
ARG_OF_PERICENTER = 167.1371
MEAN_ANOMALY   = 193.4201

EPHEMERIS_TYPE = 0
CLASSIFICATION_TYPE = U
NORAD_CAT_ID   = 67690
ELEMENT_SET_NO = 999
REV_AT_EPOCH   = 70
BSTAR          = .19172869E-3
MEAN_MOTION_DOT = .9923E-4
MEAN_MOTION_DDOT = 0

CCSDS_OMM_VERS = 2.0
CREATION_DATE  = 
ORIGINATOR     = 

OBJECT_NAME    = CZ-2F DEB
OBJECT_ID      = 2026-024C
CENTER_NAME    = EARTH
REF_FRAME      = TEME
TIME_SYSTEM    = UTC
MEAN_ELEMENT_THEORY = SGP/SGP4

EPOCH          = 2026-02-12T11:11:20.119776
MEAN_MOTION    = 15.62512416
ECCENTRICITY   = .0268347
INCLINATION    = 49.9105
RA_OF_ASC_NODE = 139.9829
ARG_OF_PERICENTER = 176.5620
MEAN_ANOMALY   = 183.7277

EPHEMERIS_TYPE = 0
CLASSIFICATION_TYPE = U
NORAD_CAT_ID   = 67691
ELEMENT_SET_NO = 999
REV_AT_EPOCH   = 82
BSTAR          = .98449E-3
MEAN_MOTION_DOT = .686096E-2
MEAN_MOTION_DDOT = .10249E-4

CCSDS_OMM_VERS = 2.0
CREATION_DATE  = 
ORIGINATOR     = 

OBJECT_NAME    = CZ-2F DEB
OBJECT_ID      = 2026-024D
CENTER_NAME    = EARTH
REF_FRAME      = TEME
TIME_SYSTEM    = UTC
MEAN_ELEMENT_THEORY = SGP/SGP4

EPOCH          = 2026-02-09T12:20:49.161696
MEAN_MOTION    = 15.62132248
ECCENTRICITY   = .03476599
INCLINATION    = 50.3761
RA_OF_ASC_NODE = 155.8636
ARG_OF_PERICENTER = 202.7642
MEAN_ANOMALY   = 155.7595

EPHEMERIS_TYPE = 0
CLASSIFICATION_TYPE = U
NORAD_CAT_ID   = 67692
ELEMENT_SET_NO = 999
REV_AT_EPOCH   = 36
BSTAR          = .16462978E-3
MEAN_MOTION_DOT = .1037071E-1
MEAN_MOTION_DDOT = .10166112E-4

CCSDS_OMM_VERS = 2.0
CREATION_DATE  = 
ORIGINATOR     = 

OBJECT_NAME    = CZ-2F DEB
OBJECT_ID      = 2026-024E
CENTER_NAME    = EARTH
REF_FRAME      = TEME
TIME_SYSTEM    = UTC
MEAN_ELEMENT_THEORY = SGP/SGP4

EPOCH          = 2026-02-12T11:54:15.780672
MEAN_MOTION    = 15.14231341
ECCENTRICITY   = .0269411
INCLINATION    = 50.3159
RA_OF_ASC_NODE = 141.5391
ARG_OF_PERICENTER = 181.0578
MEAN_ANOMALY   = 178.9841

EPHEMERIS_TYPE = 0
CLASSIFICATION_TYPE = U
NORAD_CAT_ID   = 67718
ELEMENT_SET_NO = 999
REV_AT_EPOCH   = 80
BSTAR          = .59499E-2
MEAN_MOTION_DOT = .287938E-2
MEAN_MOTION_DDOT = 0

CCSDS_OMM_VERS = 2.0
CREATION_DATE  = 
ORIGINATOR     = 

OBJECT_NAME    = CZ-2F DEB
OBJECT_ID      = 2026-024F
CENTER_NAME    = EARTH
REF_FRAME      = TEME
TIME_SYSTEM    = UTC
MEAN_ELEMENT_THEORY = SGP/SGP4

EPOCH          = 2026-02-12T11:52:48.712800
MEAN_MOTION    = 14.95425538
ECCENTRICITY   = .0340779
INCLINATION    = 49.7905
RA_OF_ASC_NODE = 142.4366
ARG_OF_PERICENTER = 170.5839
MEAN_ANOMALY   = 190.1710

EPHEMERIS_TYPE = 0
CLASSIFICATION_TYPE = U
NORAD_CAT_ID   = 67719
ELEMENT_SET_NO = 999
REV_AT_EPOCH   = 46
BSTAR          = .55127E-2
MEAN_MOTION_DOT = .211181E-2
MEAN_MOTION_DDOT = 0

CCSDS_OMM_VERS = 2.0
CREATION_DATE  = 
ORIGINATOR     = 

OBJECT_NAME    = CZ-2F DEB
OBJECT_ID      = 2026-024G
CENTER_NAME    = EARTH
REF_FRAME      = TEME
TIME_SYSTEM    = UTC
MEAN_ELEMENT_THEORY = SGP/SGP4

EPOCH          = 2026-02-12T12:06:31.178592
MEAN_MOTION    = 14.92769481
ECCENTRICITY   = .03516
INCLINATION    = 49.8301
RA_OF_ASC_NODE = 142.4766
ARG_OF_PERICENTER = 167.3687
MEAN_ANOMALY   = 193.6351

EPHEMERIS_TYPE = 0
CLASSIFICATION_TYPE = U
NORAD_CAT_ID   = 67720
ELEMENT_SET_NO = 999
REV_AT_EPOCH   = 78
BSTAR          = .5736E-2
MEAN_MOTION_DOT = .214497E-2
MEAN_MOTION_DDOT = 0

